JY1SAT (JO-97)          
1 43803U 18099AX  26068.68634132  .00017774  00000+0  60804-3 0  9996
2 43803  97.4249 131.3625 0004723 256.6795 103.3919 15.30302628398390
STARLINK-34100          
1 64385U 25127R   26068.62312048  .00023952  00000+0  87620-3 0  9997
2 64385  43.0043 180.4476 0002542 293.0590  66.9994 15.27611959 42402
